H1 CPF  2  DGF 2024 03 26 10 086 01 lageos2    NONE      
H2  9207002 5986    22195 2024 03 26 00 00 00 2024 04 02 00 00 00    60 1 1  0 0 0 1
H5  0.2443
H9
10 0 60400  64800.000000  0      -3065495.520      -6993246.517      -9462506.469
10 0 60400  64860.000000  0      -2820886.269      -7177509.738      -9406494.482
10 0 60400  64920.000000  0      -2575681.285      -7358336.018      -9342982.841
10 0 60400  64980.000000  0      -2330042.895      -7535595.951      -9272030.670
10 0 60400  65040.000000  0      -2084132.179      -7709161.781      -9193702.857
10 0 60400  65100.000000  0      -1838108.867      -7878907.494      -9108069.978
10 0 60400  65160.000000  0      -1592131.229      -8044708.910      -9015208.220
10 0 60400  65220.000000  0      -1346355.972      -8206443.773      -8915199.289
10 0 60400  65280.000000  0      -1100938.142      -8363991.845      -8808130.331
10 0 60400  65340.000000  0       -856031.026      -8517234.989      -8694093.834
10 0 60400  65400.000000  0       -611786.056      -8666057.259      -8573187.535
10 0 60400  65460.000000  0       -368352.723      -8810344.988      -8445514.326
10 0 60400  65520.000000  0       -125878.489      -8949986.868      -8311182.147
10 0 60400  65580.000000  0        115491.299      -9084874.037      -8170303.888
10 0 60400  65640.000000  0        355613.489      -9214900.158      -8022997.280
10 0 60400  65700.000000  0        594347.196      -9339961.500      -7869384.788
10 0 60400  65760.000000  0        831553.881      -9459957.015      -7709593.496
10 0 60400  65820.000000  0       1067097.421      -9574788.420      -7543754.997
10 0 60400  65880.000000  0       1300844.171      -9684360.264      -7372005.276
10 0 60400  65940.000000  0       1532663.034      -9788580.010      -7194484.590
10 0 60400  66000.000000  0       1762425.517      -9887358.102      -7011337.349
10 0 60400  66060.000000  0       1990005.788      -9980608.035      -6822711.996
10 0 60400  66120.000000  0       2215280.734     -10068246.428      -6628760.879
10 0 60400  66180.000000  0       2438130.004     -10150193.085      -6429640.128
10 0 60400  66240.000000  0       2658436.066     -10226371.066      -6225509.525
10 0 60400  66300.000000  0       2876084.242     -10296706.744      -6016532.381
10 0 60400  66360.000000  0       3090962.755     -10361129.872      -5802875.398
10 0 60400  66420.000000  0       3302962.764     -10419573.640      -5584708.543
10 0 60400  66480.000000  0       3511978.400     -10471974.732      -5362204.914
10 0 60400  66540.000000  0       3717906.798     -10518273.383      -5135540.603
10 0 60400  66600.000000  0       3920648.124     -10558413.432      -4904894.567
10 0 60400  66660.000000  0       4120105.603     -10592342.377      -4670448.485
10 0 60400  66720.000000  0       4316185.543     -10620011.421      -4432386.628
10 0 60400  66780.000000  0       4508797.351     -10641375.520      -4190895.714
10 0 60400  66840.000000  0       4697853.553     -10656393.433      -3946164.778
10 0 60400  66900.000000  0       4883269.811     -10665027.765      -3698385.025
10 0 60400  66960.000000  0       5064964.931     -10667245.003      -3447749.695
10 0 60400  67020.000000  0       5242860.872     -10663015.566      -3194453.924
10 0 60400  67080.000000  0       5416882.760     -10652313.835      -2938694.597
10 0 60400  67140.000000  0       5586958.881     -10635118.190      -2680670.214
10 0 60400  67200.000000  0       5753020.693     -10611411.049      -2420580.747
10 0 60400  67260.000000  0       5915002.819     -10581178.891      -2158627.494
10 0 60400  67320.000000  0       6072843.047     -10544412.294      -1895012.944
10 0 60400  67380.000000  0       6226482.325     -10501105.957      -1629940.631
10 0 60400  67440.000000  0       6375864.752     -10451258.724      -1363614.993
10 0 60400  67500.000000  0       6520937.568     -10394873.613      -1096241.229
10 0 60400  67560.000000  0       6661651.145     -10331957.829       -828025.162
10 0 60400  67620.000000  0       6797958.970     -10262522.790       -559173.090
10 0 60400  67680.000000  0       6929817.632     -10186584.137       -289891.650
10 0 60400  67740.000000  0       7057186.803     -10104161.751        -20387.675
10 0 60400  67800.000000  0       7180029.218     -10015279.762        249131.949
10 0 60400  67860.000000  0       7298310.654      -9919966.562        518460.420
10 0 60400  67920.000000  0       7411999.909      -9818254.811        787391.165
10 0 60400  67980.000000  0       7521068.775      -9710181.436       1055717.977
10 0 60400  68040.000000  0       7625492.009      -9595787.642       1323235.153
10 0 60400  68100.000000  0       7725247.313      -9475118.905       1589737.640
10 0 60400  68160.000000  0       7820315.296      -9348224.972       1855021.167
10 0 60400  68220.000000  0       7910679.449      -9215159.856       2118882.386
10 0 60400  68280.000000  0       7996326.110      -9075981.828       2381119.008
10 0 60400  68340.000000  0       8077244.429      -8930753.406       2641529.941
10 0 60400  68400.000000  0       8153426.339      -8779541.344       2899915.429
10 0 60400  68460.000000  0       8224866.512      -8622416.616       3156077.180
10 0 60400  68520.000000  0       8291562.328      -8459454.398       3409818.507
10 0 60400  68580.000000  0       8353513.835      -8290734.049       3660944.462
10 0 60400  68640.000000  0       8410723.708      -8116339.088       3909261.963
10 0 60400  68700.000000  0       8463197.210      -7936357.165       4154579.933
10 0 60400  68760.000000  0       8510942.149      -7750880.040       4396709.426
10 0 60400  68820.000000  0       8553968.841      -7560003.544       4635463.761
10 0 60400  68880.000000  0       8592290.060      -7363827.551       4870658.648
10 0 60400  68940.000000  0       8625920.997      -7162455.941       5102112.318
10 0 60400  69000.000000  0       8654879.220      -6955996.559       5329645.648
10 0 60400  69060.000000  0       8679184.619      -6744561.176       5553082.288
10 0 60400  69120.000000  0       8698859.371      -6528265.440       5772248.788
10 0 60400  69180.000000  0       8713927.886      -6307228.836       5986974.715
10 0 60400  69240.000000  0       8724416.762      -6081574.626       6197092.780
10 0 60400  69300.000000  0       8730354.739      -5851429.808       6402438.956
10 0 60400  69360.000000  0       8731772.649      -5616925.047       6602852.599
10 0 60400  69420.000000  0       8728703.371      -5378194.628       6798176.563
10 0 60400  69480.000000  0       8721181.779      -5135376.385       6988257.318
10 0 60400  69540.000000  0       8709244.692      -4888611.644       7172945.064
10 0 60400  69600.000000  0       8692930.829      -4638045.150       7352093.844
10 0 60400  69660.000000  0       8672280.758      -4383825.000       7525561.651
10 0 60400  69720.000000  0       8647336.844      -4126102.564       7693210.546
10 0 60400  69780.000000  0       8618143.202      -3865032.418       7854906.754
10 0 60400  69840.000000  0       8584745.644      -3600772.256       8010520.780
10 0 60400  69900.000000  0       8547191.633      -3333482.810       8159927.504
10 0 60400  69960.000000  0       8505530.230      -3063327.767       8303006.288
10 0 60400  70020.000000  0       8459812.043      -2790473.679       8439641.072
10 0 60400  70080.000000  0       8410089.180      -2515089.869       8569720.472
10 0 60400  70140.000000  0       8356415.198      -2237348.342       8693137.873
10 0 60400  70200.000000  0       8298845.050      -1957423.680       8809791.524
10 0 60400  70260.000000  0       8237435.042      -1675492.951       8919584.626
10 0 60400  70320.000000  0       8172242.773      -1391735.597       9022425.418
10 0 60400  70380.000000  0       8103327.098      -1106333.331       9118227.264
10 0 60400  70440.000000  0       8030748.067       -819470.030       9206908.732
10 0 60400  70500.000000  0       7954566.885       -531331.618       9288393.675
10 0 60400  70560.000000  0       7874845.856       -242105.954       9362611.307
10 0 60400  70620.000000  0       7791648.342         48017.288       9429496.274
10 0 60400  70680.000000  0       7705038.708        338846.738       9488988.726
10 0 60400  70740.000000  0       7615082.278        630189.456       9541034.381
10 0 60400  70800.000000  0       7521845.286        921851.058       9585584.591
10 0 60400  70860.000000  0       7425394.830       1213635.844       9622596.401
10 0 60400  70920.000000  0       7325798.826       1505346.932       9652032.603
10 0 60400  70980.000000  0       7223125.958       1796786.393       9673861.794
10 0 60400  71040.000000  0       7117445.639       2087755.385       9688058.420
10 0 60400  71100.000000  0       7008827.958       2378054.297       9694602.821
10 0 60400  71160.000000  0       6897343.641       2667482.888       9693481.279
10 0 60400  71220.000000  0       6783064.003       2955840.435       9684686.045
10 0 60400  71280.000000  0       6666060.907       3242925.877       9668215.381
10 0 60400  71340.000000  0       6546406.721       3528537.965       9644073.583
10 0 60400  71400.000000  0       6424174.271       3812475.415       9612271.009
10 0 60400  71460.000000  0       6299436.804       4094537.058       9572824.096
10 0 60400  71520.000000  0       6172267.945       4374522.000       9525755.378
10 0 60400  71580.000000  0       6042741.654       4652229.775       9471093.496
10 0 60400  71640.000000  0       5910932.188       4927460.503       9408873.202
10 0 60400  71700.000000  0       5776914.062       5200015.057       9339135.361
10 0 60400  71760.000000  0       5640762.007       5469695.215       9261926.950
10 0 60400  71820.000000  0       5502550.935       5736303.832       9177301.046
10 0 60400  71880.000000  0       5362355.898       5999644.999       9085316.810
10 0 60400  71940.000000  0       5220252.056       6259524.208       8986039.474
99